OBJECT_NAME,OBJECT_ID,EPOCH,MEAN_MOTION,ECCENTRICITY,INCLINATION,RA_OF_ASC_NODE,ARG_OF_PERICENTER,MEAN_ANOMALY,EPHEMERIS_TYPE,CLASSIFICATION_TYPE,NORAD_CAT_ID,ELEMENT_SET_NO,REV_AT_EPOCH,BSTAR,MEAN_MOTION_DOT,MEAN_MOTION_DDOT
STARLINK-1542,2020-055AY,2026-06-07T23:23:39.079104,15.31694225,.00010493,53.1596,44.7559,104.8059,255.3059,0,U,46073,999,32301,-.7806156E-4,-.2786E-4,0
STARLINK-1549,2020-055AZ,2026-06-07T22:25:45.439680,15.29314359,.00018223,53.0632,42.1024,194.7988,165.2958,0,U,46074,999,32303,.13780437E-2,.39573E-3,0
STARLINK-1551,2020-055BA,2026-06-07T22:32:03.732576,15.30183066,.00010613,53.1605,41.8652,96.2209,263.8913,0,U,46075,999,32305,.52486594E-4,.1195E-4,0
STARLINK-1552,2020-055BB,2026-06-07T22:15:24.012864,15.31691857,.00013134,53.1628,41.5264,95.9343,264.1808,0,U,46076,999,32304,-.40056202E-4,-.1608E-4,0
STARLINK-1559,2020-055BC,2026-06-07T20:37:08.539104,15.38317278,.0001115,53.0245,11.3350,112.3560,247.7561,0,U,46077,999,32342,.10837874E-2,.41377E-3,0
STARLINK-1566,2020-055BE,2026-06-07T22:22:04.897632,15.31693187,.00012633,53.1621,41.3585,85.7028,274.4118,0,U,46079,999,32306,-.21692356E-4,-.1038E-4,0
STARLINK-1568,2020-055BF,2026-06-07T17:59:47.112576,15.54231765,.00029809,53.0582,320.7509,69.3565,290.7764,0,U,46080,999,32416,.76214386E-3,.50425E-3,0
STARLINK-1578,2020-055BH,2026-06-07T22:28:24.349152,15.31689402,.00014663,53.1618,41.8507,126.3278,233.7859,0,U,46082,999,32305,.3223852E-5,-.265E-5,0
STARLINK-1579,2020-055BJ,2026-06-07T22:08:40.048800,15.31688706,.00011623,53.1603,41.4549,95.0593,265.0541,0,U,46083,999,32305,-.23759477E-4,-.1102E-4,0
BSAT-4B,2020-056A,2026-06-07T23:47:54.763584,1.00270089,.00040509,0.0494,168.0088,306.4242,248.7625,0,U,46112,999,2129,0,-.335E-5,0
MEV-2,2020-056B,2026-06-07T21:58:40.430208,1.00271594,.00004465,0.0048,329.6678,189.7889,65.5178,0,U,46113,999,8044,0,.4E-7,0
GALAXY 30 (G-30),2020-056C,2026-06-07T23:05:58.462944,1.00272767,.00022381,0.0178,358.1248,76.5119,43.2111,0,U,46114,999,2120,0,.52E-6,0
STARLINK-1622,2020-057M,2026-06-08T08:00:04.000032,15.85033722,.00069834,53.0141,133.5423,64.9847,214.9598,0,U,46128,999,601,.69471239E-3,.169595E-2,0
STARLINK-1623,2020-057N,2026-06-08T08:00:04.000032,15.74931565,.00063466,53.0409,171.7814,32.2932,66.0527,0,U,46129,999,594,.66996979E-3,.10204E-2,0
STARLINK-1596,2020-057AA,2026-06-08T05:11:58.806240,15.59674131,.00069348,53.0348,154.8963,34.2240,325.9218,0,U,46141,999,32133,.10712327E-2,.87613E-3,0
STARLINK-1597,2020-057AB,2026-06-07T09:42:03.781152,15.74536378,.00049069,53.0403,216.1516,26.8864,333.2408,0,U,46142,999,32039,.7304633E-3,.109457E-2,0
STARLINK-1606,2020-057AD,2026-06-08T08:00:04.000032,15.94451569,.00018669,53.0327,164.3786,146.3784,252.2613,0,U,46144,999,586,.89574505E-3,.343103E-2,.57179628E-4
STARLINK-1608,2020-057AF,2026-06-07T23:34:21.259200,15.36012608,.000448,53.1582,248.5764,341.2378,18.8460,0,U,46146,999,32002,.13965507E-2,.49635E-3,0
STARLINK-1667,2020-057AQ,2026-06-08T08:00:04.000032,15.90927191,.00066146,53.0102,132.7089,67.0381,245.3954,0,U,46155,999,602,.10364224E-2,.33058E-2,.51882237E-4
STARLINK-1545,2020-057AR,2026-06-08T08:00:04.000032,15.86217149,.00015248,53.0370,169.0378,77.5572,198.8989,0,U,46156,999,591,.90135215E-3,.234665E-2,0
STARLINK-1595,2020-057AU,2026-06-08T08:00:04.000032,15.72542669,.00054239,53.0409,214.2880,19.7085,26.6469,0,U,46159,999,598,.14183476E-3,.18796E-3,0
STARLINK-1598,2020-057AV,2026-06-08T08:00:04.000032,15.72361171,.00014179,53.0428,200.4462,331.3544,220.3023,0,U,46160,999,593,.15642544E-3,.20625E-3,0
STARLINK-1626,2020-057BC,2026-06-08T08:00:04.000032,15.75605205,.0001573,53.0396,209.8911,71.5764,187.0064,0,U,46167,999,593,-.52303642E-4,-.8784E-4,0
STARLINK-1633,2020-057BG,2026-06-08T08:00:04.000032,15.83353165,.00016088,53.0332,170.9258,90.7044,132.4347,0,U,46171,999,595,.58256385E-3,.13034E-2,0
STARLINK-1635,2020-057BH,2026-06-08T08:00:04.000032,15.89163835,.00015961,53.0337,168.7877,101.9885,42.0999,0,U,46172,999,595,.16052472E-2,.498949E-2,0
STARLINK-1640,2020-057BJ,2026-06-08T05:37:30.897696,15.72515190,.00057273,53.0410,215.8095,19.2840,340.8393,0,U,46173,999,32047,.9558926E-3,.131861E-2,0
STARLINK-1641,2020-057BK,2026-06-07T20:19:28.363584,15.62587972,.00015299,53.0454,209.3336,43.7307,316.3827,0,U,46174,999,32053,.66654313E-3,.60558E-3,0
GAOFEN-9 05,2020-058A,2026-06-08T06:10:11.445888,15.31844159,.00099238,97.2091,199.7809,122.5571,237.6630,0,U,46232,999,32224,.26648766E-3,.8131E-4,0
SAOCOM 1B,2020-059A,2026-06-08T07:45:43.115616,14.82161847,.00014793,97.8891,345.2952,77.4710,282.6668,0,U,46265,999,31217,-.3986852E-5,-.84E-6,0
GNOMES-1,2020-059B,2026-06-08T02:59:36.462048,15.00281342,.00130505,97.7872,9.4957,46.3569,313.8735,0,U,46266,999,31423,.27491222E-3,.3389E-4,0
